start=new Date('2022-03-02T00:00:00.000Z').valueOf();
sats=[{"PERIAPSIS":"546.003","TLE_LINE1":"1 45377U 20019T   22060.83417745  .00002092  00000-0  15929-3 0  9999","EPHEMERIS_TYPE":"0","COUNTRY_CODE":"US","MEAN_MOTION_DDOT":"0.0000000000000","TIME_SYSTEM":"UTC","SEMIMAJOR_AXIS":"6925.353","REV_AT_EPOCH":"10834","INCLINATION":"53.0536","CLASSIFICATION_TYPE":"U","OBJECT_ID":"2020-019T","NORAD_CAT_ID":"45377","PERIOD":"95.592","ECCENTRICITY":"0.00017540","REF_FRAME":"TEME","TLE_LINE2":"2 45377  53.0536 280.5622 0001754  68.1552 291.9624 15.06398621108349","ELEMENT_SET_NO":"999","MEAN_MOTION_DOT":"0.00002092","EPOCH":"2022-03-01T20:01:12.931680","RA_OF_ASC_NODE":"280.5622","LAUNCH_DATE":"2020-03-18","CENTER_NAME":"EARTH","OBJECT_NAME":"STARLINK-1305","ARG_OF_PERICENTER":"68.1552","MEAN_MOTION":"15.06398621","APOAPSIS":"548.432","RCS_SIZE":"LARGE","DECAY_DATE":null,"MEAN_ELEMENT_THEORY":"SGP4","BSTAR":"0.00015929000000","FILE":"3338635","GP_ID":"197540076","MEAN_ANOMALY":"291.9624","SITE":"AFETR","OBJECT_TYPE":"PAYLOAD"},{"RA_OF_ASC_NODE":"280.3297","LAUNCH_DATE":"2020-03-18","ARG_OF_PERICENTER":"81.6827","CENTER_NAME":"EARTH","OBJECT_NAME":"STARLINK-1310","MEAN_MOTION":"15.06393186","APOAPSIS":"548.253","DECAY_DATE":null,"RCS_SIZE":"LARGE","MEAN_ELEMENT_THEORY":"SGP4","FILE":"3338635","BSTAR":"0.00002919000000","SITE":"AFETR","MEAN_ANOMALY":"278.4329","GP_ID":"197540328","OBJECT_TYPE":"PAYLOAD","EPHEMERIS_TYPE":"0","TLE_LINE1":"1 45378U 20019U   22060.88946761  .00000153  00000-0  29190-4 0  9992","COUNTRY_CODE":"US","PERIAPSIS":"546.216","MEAN_MOTION_DDOT":"0.0000000000000","SEMIMAJOR_AXIS":"6925.369","TIME_SYSTEM":"UTC","INCLINATION":"53.0528","REV_AT_EPOCH":"10835","CLASSIFICATION_TYPE":"U","OBJECT_ID":"2020-019U","NORAD_CAT_ID":"45378","PERIOD":"95.593","ECCENTRICITY":"0.00014710","REF_FRAME":"TEME","TLE_LINE2":"2 45378  53.0528 280.3297 0001471  81.6827 278.4329 15.06393186108352","ELEMENT_SET_NO":"999","EPOCH":"2022-03-01T21:20:50.001504","MEAN_MOTION_DOT":"0.00000153"},{"RA_OF_ASC_NODE":"280.3014","LAUNCH_DATE":"2020-03-18","OBJECT_NAME":"STARLINK-1319","CENTER_NAME":"EARTH","ARG_OF_PERICENTER":"61.7689","MEAN_MOTION":"15.06392034","APOAPSIS":"548.197","RCS_SIZE":"LARGE","DECAY_DATE":null,"MEAN_ELEMENT_THEORY":"SGP4","BSTAR":"0.00004869800000","FILE":"3338635","GP_ID":"197540579","MEAN_ANOMALY":"298.3440","SITE":"AFETR","OBJECT_TYPE":"PAYLOAD","PERIAPSIS":"546.279","COUNTRY_CODE":"US","TLE_LINE1":"1 45379U 20019V   22060.89315998  .00000444  00000-0  48698-4 0  9993","EPHEMERIS_TYPE":"0","MEAN_MOTION_DDOT":"0.0000000000000","TIME_SYSTEM":"UTC","SEMIMAJOR_AXIS":"6925.373","INCLINATION":"53.0531","REV_AT_EPOCH":"10835","CLASSIFICATION_TYPE":"U","OBJECT_ID":"2020-019V","NORAD_CAT_ID":"45379","PERIOD":"95.593","ECCENTRICITY":"0.00013850","REF_FRAME":"TEME","TLE_LINE2":"2 45379  53.0531 280.3014 0001385  61.7689 298.3440 15.06392034108359","ELEMENT_SET_NO":"999","MEAN_MOTION_DOT":"0.00000444","EPOCH":"2022-03-01T21:26:09.022272"},{"EPOCH":"2022-03-01T19:47:56.869728","MEAN_MOTION_DOT":"0.00001872","ELEMENT_SET_NO":"999","TLE_LINE2":"2 45380  53.0528 260.6031 0001461  73.6186 286.4964 15.06400781108613","REF_FRAME":"TEME","PERIOD":"95.592","ECCENTRICITY":"0.00014610","NORAD_CAT_ID":"45380","OBJECT_ID":"2020-019W","CLASSIFICATION_TYPE":"U","REV_AT_EPOCH":"10861","INCLINATION":"53.0528","SEMIMAJOR_AXIS":"6925.346","TIME_SYSTEM":"UTC","MEAN_MOTION_DDOT":"0.0000000000000","COUNTRY_CODE":"US","TLE_LINE1":"1 45380U 20019W   22060.82496377  .00001872  00000-0  14455-3 0  9998","EPHEMERIS_TYPE":"0","PERIAPSIS":"546.199","OBJECT_TYPE":"PAYLOAD","MEAN_ANOMALY":"286.4964","SITE":"AFETR","GP_ID":"197539327","FILE":"3338635","BSTAR":"0.00014455000000","MEAN_ELEMENT_THEORY":"SGP4","DECAY_DATE":null,"RCS_SIZE":"LARGE","APOAPSIS":"548.223","MEAN_MOTION":"15.06400781","ARG_OF_PERICENTER":"73.6186","OBJECT_NAME":"STARLINK-1207","CENTER_NAME":"EARTH","LAUNCH_DATE":"2020-03-18","RA_OF_ASC_NODE":"260.6031"},{"SEMIMAJOR_AXIS":"6925.380","TIME_SYSTEM":"UTC","INCLINATION":"53.0531","REV_AT_EPOCH":"10861","CLASSIFICATION_TYPE":"U","OBJECT_ID":"2020-019X","EPHEMERIS_TYPE":"0","TLE_LINE1":"1 45381U 20019X   22060.83602504 -.00001056  00000-0 -52048-4 0  9998","COUNTRY_CODE":"US","PERIAPSIS":"546.209","MEAN_MOTION_DDOT":"0.0000000000000","TLE_LINE2":"2 45381  53.0531 260.5473 0001497  84.8272 275.2888 15.06389605108618","ELEMENT_SET_NO":"999","EPOCH":"2022-03-01T20:03:52.563456","MEAN_MOTION_DOT":"-0.00001056","NORAD_CAT_ID":"45381","ECCENTRICITY":"0.00014970","PERIOD":"95.593","REF_FRAME":"TEME","ARG_OF_PERICENTER":"84.8272","OBJECT_NAME":"STARLINK-1258","CENTER_NAME":"EARTH","MEAN_MOTION":"15.06389605","RA_OF_ASC_NODE":"260.5473","LAUNCH_DATE":"2020-03-18","FILE":"3338635","BSTAR":"-0.00005204800000","SITE":"AFETR","MEAN_ANOMALY":"275.2888","GP_ID":"197539577","OBJECT_TYPE":"PAYLOAD","APOAPSIS":"548.282","DECAY_DATE":null,"RCS_SIZE":"LARGE","MEAN_ELEMENT_THEORY":"SGP4"},{"REF_FRAME":"TEME","ECCENTRICITY":"0.00012840","PERIOD":"95.592","NORAD_CAT_ID":"45382","MEAN_MOTION_DOT":"0.00000422","EPOCH":"2022-03-01T19:32:01.913856","ELEMENT_SET_NO":"999","TLE_LINE2":"2 45382  53.0536 260.6714 0001284  83.3302 276.7833 15.06405646108435","MEAN_MOTION_DDOT":"0.0000000000000","PERIAPSIS":"546.307","COUNTRY_CODE":"US","TLE_LINE1":"1 45382U 20019Y   22060.81391104  .00000422  00000-0  47223-4 0  9991","EPHEMERIS_TYPE":"0","OBJECT_ID":"2020-019Y","CLASSIFICATION_TYPE":"U","REV_AT_EPOCH":"10843","INCLINATION":"53.0536","TIME_SYSTEM":"UTC","SEMIMAJOR_AXIS":"6925.331","MEAN_ELEMENT_THEORY":"SGP4","RCS_SIZE":"LARGE","DECAY_DATE":null,"APOAPSIS":"548.085","OBJECT_TYPE":"PAYLOAD","GP_ID":"197540828","SITE":"AFETR","MEAN_ANOMALY":"276.7833","BSTAR":"0.00004722300000","FILE":"3338635","LAUNCH_DATE":"2020-03-18","RA_OF_ASC_NODE":"260.6714","MEAN_MOTION":"15.06405646","CENTER_NAME":"EARTH","OBJECT_NAME":"STARLINK-1264","ARG_OF_PERICENTER":"83.3302"},{"NORAD_CAT_ID":"45383","PERIOD":"95.592","ECCENTRICITY":"0.00013740","REF_FRAME":"TEME","TLE_LINE2":"2 45383  53.0553 260.5886 0001374  85.6987 274.4159 15.06396807108612","ELEMENT_SET_NO":"999","MEAN_MOTION_DOT":"0.00000176","EPOCH":"2022-03-01T19:53:15.550944","PERIAPSIS":"546.272","COUNTRY_CODE":"US","TLE_LINE1":"1 45383U 20019Z   22060.82865221  .00000176  00000-0  30679-4 0  9992","EPHEMERIS_TYPE":"0","MEAN_MOTION_DDOT":"0.0000000000000","TIME_SYSTEM":"UTC","SEMIMAJOR_AXIS":"6925.358","REV_AT_EPOCH":"10861","INCLINATION":"53.0553","CLASSIFICATION_TYPE":"U","OBJECT_ID":"2020-019Z","APOAPSIS":"548.175","RCS_SIZE":"LARGE","DECAY_DATE":null,"MEAN_ELEMENT_THEORY":"SGP4","BSTAR":"0.00003067900000","FILE":"3338635","GP_ID":"197541079","SITE":"AFETR","MEAN_ANOMALY":"274.4159","OBJECT_TYPE":"PAYLOAD","RA_OF_ASC_NODE":"260.5886","LAUNCH_DATE":"2020-03-18","CENTER_NAME":"EARTH","OBJECT_NAME":"STARLINK-1266","ARG_OF_PERICENTER":"85.6987","MEAN_MOTION":"15.06396807"},{"LAUNCH_DATE":"2020-03-18","RA_OF_ASC_NODE":"260.6415","MEAN_MOTION":"15.06403576","ARG_OF_PERICENTER":"77.9715","OBJECT_NAME":"STARLINK-1267","CENTER_NAME":"EARTH","MEAN_ELEMENT_THEORY":"SGP4","RCS_SIZE":"LARGE","DECAY_DATE":null,"APOAPSIS":"548.347","OBJECT_TYPE":"PAYLOAD","MEAN_ANOMALY":"282.1459","SITE":"AFETR","GP_ID":"197539827","FILE":"3338635","BSTAR":"0.00012324000000","MEAN_MOTION_DDOT":"0.0000000000000","COUNTRY_CODE":"US","TLE_LINE1":"1 45384U 20019AA  22060.81759094  .00001555  00000-0  12324-3 0  9990","EPHEMERIS_TYPE":"0","PERIAPSIS":"546.059","OBJECT_ID":"2020-019AA","CLASSIFICATION_TYPE":"U","INCLINATION":"53.0535","REV_AT_EPOCH":"10861","SEMIMAJOR_AXIS":"6925.338","TIME_SYSTEM":"UTC","REF_FRAME":"TEME","PERIOD":"95.592","ECCENTRICITY":"0.00016520","NORAD_CAT_ID":"45384","EPOCH":"2022-03-01T19:37:19.857216","MEAN_MOTION_DOT":"0.00001555","ELEMENT_SET_NO":"999","TLE_LINE2":"2 45384  53.0535 260.6415 0001652  77.9715 282.1459 15.06403576108615"},{"MEAN_MOTION":"15.06399129","ARG_OF_PERICENTER":"85.9635","OBJECT_NAME":"STARLINK-1272","CENTER_NAME":"EARTH","LAUNCH_DATE":"2020-03-18","RA_OF_ASC_NODE":"260.6340","MEAN_ANOMALY":"274.1524","SITE":"AFETR","GP_ID":"197540077","OBJECT_TYPE":"PAYLOAD","FILE":"3338635","BSTAR":"0.00006098700000","MEAN_ELEMENT_THEORY":"SGP4","APOAPSIS":"548.249","RCS_SIZE":"LARGE","DECAY_DATE":null,"CLASSIFICATION_TYPE":"U","OBJECT_ID":"2020-019AC","SEMIMAJOR_AXIS":"6925.351","TIME_SYSTEM":"UTC","INCLINATION":"53.0532","REV_AT_EPOCH":"10861","MEAN_MOTION_DDOT":"0.0000000000000","EPHEMERIS_TYPE":"0","TLE_LINE1":"1 45386U 20019AC  22060.82128173  .00000627  00000-0  60987-4 0  9999","COUNTRY_CODE":"US","PERIAPSIS":"546.183","EPOCH":"2022-03-01T19:42:38.741472","MEAN_MOTION_DOT":"0.00000627","TLE_LINE2":"2 45386  53.0532 260.6340 0001492  85.9635 274.1524 15.06399129108615","ELEMENT_SET_NO":"999","ECCENTRICITY":"0.00014920","PERIOD":"95.592","REF_FRAME":"TEME","NORAD_CAT_ID":"45386"},{"NORAD_CAT_ID":"45387","PERIOD":"95.592","ECCENTRICITY":"0.00015310","REF_FRAME":"TEME","TLE_LINE2":"2 45387  53.0538 260.5264 0001531  80.4248 279.6914 15.06401840108617","ELEMENT_SET_NO":"999","EPOCH":"2022-03-01T20:14:28.880448","MEAN_MOTION_DOT":"0.00001718","TLE_LINE1":"1 45387U 20019AD  22060.84338982  .00001718  00000-0  13420-3 0  9994","EPHEMERIS_TYPE":"0","COUNTRY_CODE":"US","PERIAPSIS":"546.148","MEAN_MOTION_DDOT":"0.0000000000000","SEMIMAJOR_AXIS":"6925.343","TIME_SYSTEM":"UTC","INCLINATION":"53.0538","REV_AT_EPOCH":"10861","CLASSIFICATION_TYPE":"U","OBJECT_ID":"2020-019AD","APOAPSIS":"548.268","RCS_SIZE":"LARGE","DECAY_DATE":null,"MEAN_ELEMENT_THEORY":"SGP4","FILE":"3338635","BSTAR":"0.00013420000000","MEAN_ANOMALY":"279.6914","SITE":"AFETR","GP_ID":"197540329","OBJECT_TYPE":"PAYLOAD","RA_OF_ASC_NODE":"260.5264","LAUNCH_DATE":"2020-03-18","ARG_OF_PERICENTER":"80.4248","CENTER_NAME":"EARTH","OBJECT_NAME":"STARLINK-1274","MEAN_MOTION":"15.06401840"}];
